1 40040U 14033AG  21179.34000341  .00001252  00000-0  12606-3 0  9992
2 40040  98.0062 128.0103 0014030  99.5352 260.7453 14.92997819381627
1 40040U 14033AG  21179.80914677  .00001232  00000-0  12414-3 0  9994
2 40040  98.0061 128.4876 0014046  98.1581 262.1232 14.92998945381692
1 40040U 14033AG  21180.14424928  .00001315  00000-0  13204-3 0  9998
2 40040  98.0061 128.8286 0014066  97.1787 263.1031 14.93000151381748
1 40040U 14033AG  21180.41233084  .00001305  00000-0  13106-3 0  9999
2 40040  98.0061 129.1014 0014074  96.3825 263.8997 14.93000842382289
1 40040U 14033AG  21180.81445283  .00001232  00000-0  12413-3 0  9998
2 40040  98.0061 129.5105 0014082  95.1927 265.0899 14.93001605381847
1 40040U 14033AG  21181.48465563  .00001269  00000-0  12763-3 0  9993
2 40040  98.0061 130.1924 0014104  93.2179 267.0653 14.93003680381943
1 40040U 14033AG  21181.48465563  .00001269  00000-0  12763-3 0  9993
2 40040  98.0061 130.1924 0014104  93.2179 267.0653 14.93003680382449
1 40040U 14033AG  21181.81975647  .00001234  00000-0  12429-3 0  9990
2 40040  98.0061 130.5334 0014106  92.2306 268.0528 14.93004536381993
1 40040U 14033AG  21182.35591723  .00001292  00000-0  12982-3 0  9997
2 40040  98.0061 131.0789 0014134  90.6916 269.5922 14.93006571382078
1 40040U 14033AG  21182.82505806  .00001192  00000-0  12024-3 0  9992
2 40040  98.0061 131.5563 0014137  89.3072 270.9767 14.93007322382140
1 40040U 14033AG  21182.82505806  .00001192  00000-0  12024-3 0  9992
2 40040  98.0061 131.5563 0014137  89.3072 270.9767 14.93007322382645
1 40040U 14033AG  21183.49525808  .00001160  00000-0  11713-3 0  9999
2 40040  98.0061 132.2382 0014150  87.3646 272.9192 14.93009126382246
1 40040U 14033AG  21183.83035768  .00001156  00000-0  11680-3 0  9996
2 40040  98.0061 132.5792 0014150  86.3794 273.9042 14.93010122382295
1 40040U 14033AG  21184.09843715  .00001164  00000-0  11750-3 0  9991
2 40040  98.0061 132.8519 0014157  85.6185 274.6650 14.93010978382830
1 40040U 14033AG  21184.56757635  .00001119  00000-0  11322-3 0  9993
2 40040  98.0061 133.3293 0014158  84.2518 276.0315 14.93012005382401
1 40040U 14033AG  21184.83565565  .00001123  00000-0  11358-3 0  9996
2 40040  98.0061 133.6021 0014154  83.4739 276.8091 14.93012763382449
1 40040U 14033AG  21185.10373510  .00001092  00000-0  11060-3 0  9999
2 40040  98.0062 133.8749 0014157  82.7105 277.5722 14.93013222382980
1 40040U 14033AG  21185.50585358  .00001095  00000-0  11090-3 0  9994
2 40040  98.0062 134.2840 0014156  81.5451 278.7372 14.93014327382540
1 40040U 14033AG  21185.84095217  .00001140  00000-0  11526-3 0  9996
2 40040  98.0062 134.6250 0014150  80.5685 279.7132 14.93015427382593
1 40040U 14033AG  21186.10903094  .00001149  00000-0  11604-3 0  9993
2 40040  98.0063 134.8978 0014151  79.8034 280.4780 14.93016124383137
1 40040U 14033AG  21186.51114937  .00001113  00000-0  11264-3 0  9991
2 40040  98.0063 135.3070 0014148  78.6526 281.6282 14.93016742382691
1 40040U 14033AG  21186.84624753  .00001110  00000-0  11233-3 0  9992
2 40040  98.0063 135.6479 0014141  77.6896 282.5905 14.93017501382741
1 40040U 14033AG  21187.11432608  .00001113  00000-0  11266-3 0  9998
2 40040  98.0064 135.9207 0014138  76.9106 283.3690 14.93018057383283
1 40040U 14033AG  21187.38240438  .00001094  00000-0  11080-3 0  9997
2 40040  98.0064 136.1935 0014133  76.1492 284.1298 14.93018556382825
1 40040U 14033AG  21188.11961998  .00001054  00000-0  10696-3 0  9998
2 40040  98.0064 136.9437 0014124  74.0192 286.2582 14.93019643383439
1 40040U 14033AG  21188.85683442  .00001145  00000-0  11568-3 0  9994
2 40040  98.0065 137.6938 0014106  71.8881 288.3873 14.93021533383048
1 40040U 14033AG  21189.12491226  .00001157  00000-0  11686-3 0  9996
2 40040  98.0065 137.9666 0014104  71.1187 289.1560 14.93022086383584
1 40040U 14033AG  21189.39298987  .00001201  00000-0  12105-3 0  9991
2 40040  98.0065 138.2394 0014096  70.3455 289.9283 14.93022853383127
1 40040U 14033AG  21189.59404815  .00001198  00000-0  12075-3 0  9993
2 40040  98.0065 138.4440 0014088  69.7601 290.5131 14.93023169383151
1 40040U 14033AG  21190.13020302  .00001208  00000-0  12169-3 0  9996
2 40040  98.0066 138.9896 0014083  68.2091 292.0625 14.93024304383735
1 40040U 14033AG  21190.39828031  .00001167  00000-0  11781-3 0  9992
2 40040  98.0066 139.2624 0014074  67.4299 292.8408 14.93024630383277
1 40040U 14033AG  21190.86741506  .00001167  00000-0  11775-3 0  9998
2 40040  98.0066 139.7398 0014055  66.0149 294.2539 14.93025660383341
1 40040U 14033AG  21191.13549191  .00001155  00000-0  11667-3 0  9992
2 40040  98.0066 140.0126 0014052  65.2498 295.0181 14.93026201383883
1 40040U 14033AG  21191.40356854  .00001187  00000-0  11974-3 0  9990
2 40040  98.0066 140.2854 0014047  64.4731 295.7939 14.93027020383426
1 40040U 14033AG  21191.80568327  .00001161  00000-0  11722-3 0  9997
2 40040  98.0066 140.6945 0014034  63.2772 296.9881 14.93027860383486
1 40040U 14033AG  21192.14077860  .00001152  00000-0  11636-3 0  9996
2 40040  98.0066 141.0355 0014026  62.2958 297.9682 14.93028657384039
1 40040U 14033AG  21192.40885474  .00001059  00000-0  10744-3 0  9998
2 40040  98.0066 141.3083 0014021  61.5062 298.7567 14.93028860383578
1 40040U 14033AG  21192.81096863  .00001138  00000-0  11495-3 0  9991
2 40040  98.0066 141.7175 0014007  60.3058 299.9553 14.93030332383632
1 40040U 14033AG  21193.34712026  .00001109  00000-0  11217-3 0  9996
2 40040  98.0066 142.2631 0014000  58.7590 301.4998 14.93031555384215
1 40040U 14033AG  21193.48115811  .00001082  00000-0  10962-3 0  9996
2 40040  98.0065 142.3995 0013995  58.3577 301.9005 14.93031735383731
1 40040U 14033AG  21193.81625229  .00001061  00000-0  10763-3 0  9998
2 40040  98.0065 142.7405 0013981  57.3552 302.9013 14.93032567383787
1 40040U 14033AG  21194.35240273  .00001000  00000-0  10176-3 0  9991
2 40040  98.0066 143.2860 0013970  55.7889 304.4652 14.93033714384368
1 40040U 14033AG  21194.48644046  .00000967  00000-0  98598-4 0  9997
2 40040  98.0066 143.4224 0013967  55.3928 304.8606 14.93033825383882
1 40040U 14033AG  21194.68749676  .00000945  00000-0  96422-4 0  9994
2 40040  98.0066 143.6270 0013959  54.7884 305.4639 14.93034226383913
1 40040U 14033AG  21195.42470289  .00000813  00000-0  83795-4 0  9991
2 40040  98.0066 144.3772 0013935  52.6326 307.6160 14.93035370384027
1 40040U 14033AG  21195.42470289  .00000813  00000-0  83795-4 0  9991
2 40040  98.0066 144.3772 0013935  52.6326 307.6160 14.93035370384522
1 40040U 14033AG  21195.82681499  .00000746  00000-0  77318-4 0  9991
2 40040  98.0065 144.7864 0013914  51.4612 308.7852 14.93035975384081
1 40040U 14033AG  21196.09488920  .00000803  00000-0  82862-4 0  9999
2 40040  98.0066 145.0592 0013903  50.6719 309.5730 14.93037044384129
1 40040U 14033AG  21197.30122393  .00000673  00000-0  70310-4 0  9993
2 40040  98.0066 146.2869 0013843  47.0619 313.1759 14.93039014384302
1 40040U 14033AG  21197.30122393  .00000673  00000-0  70310-4 0  9993
2 40040  98.0066 146.2869 0013843  47.0619 313.1759 14.93039014384807
1 40040U 14033AG  21198.37352063  .00000642  00000-0  67412-4 0  9995
2 40040  98.0067 147.3781 0013778  43.8908 316.3403 14.93040721384465
1 40040U 14033AG  21198.37352063  .00000642  00000-0  67412-4 0  9995
2 40040  98.0067 147.3781 0013778  43.8908 316.3403 14.93040721384960
1 40040U 14033AG  21198.84265011  .00000660  00000-0  69112-4 0  9992
2 40040  98.0067 147.8555 0013746  42.4818 317.7461 14.93041519384532
1 40040U 14033AG  21199.37879815  .00000650  00000-0  68121-4 0  9992
2 40040  98.0067 148.4011 0013710  40.8752 319.3493 14.93042117384613
1 40040U 14033AG  21199.37879815  .00000650  00000-0  68121-4 0  9992
2 40040  98.0067 148.4011 0013710  40.8752 319.3493 14.93042117385119
1 40040U 14033AG  21199.84792730  .00000681  00000-0  71113-4 0  9993
2 40040  98.0067 148.8785 0013673  39.4742 320.7470 14.93042858384686
1 40040U 14033AG  21200.51811139  .00000809  00000-0  83402-4 0  9991
2 40040  98.0068 149.5606 0013630  37.4976 322.7191 14.93044333385286
1 40040U 14033AG  21200.85320354  .00000796  00000-0  82194-4 0  9994
2 40040  98.0068 149.9016 0013601  36.4882 323.7261 14.93044585384836
1 40040U 14033AG  21201.32233182  .00000952  00000-0  97088-4 0  9991
2 40040  98.0068 150.3790 0013560  35.1118 325.0991 14.93046013384904
1 40040U 14033AG  21201.59040505  .00001001  00000-0  10181-3 0  9999
2 40040  98.0069 150.6518 0013541  34.2989 325.9101 14.93046599385442
1 40040U 14033AG  21201.85847807  .00001039  00000-0  10543-3 0  9991
2 40040  98.0069 150.9246 0013524  33.4614 326.7457 14.93047227384980
1 40040U 14033AG  21202.39462359  .00001216  00000-0  12247-3 0  9996
2 40040  98.0069 151.4703 0013480  31.8632 328.3399 14.93049081385060
1 40040U 14033AG  21202.59567818  .00001225  00000-0  12332-3 0  9999
2 40040  98.0069 151.6749 0013463  31.2625 328.9392 14.93049426385599
1 40040U 14033AG  21202.79673236  .00001307  00000-0  13112-3 0  9991
2 40040  98.0069 151.8795 0013451  30.6360 329.5641 14.93050331385128
1 40040U 14033AG  21203.39989527  .00001481  00000-0  14783-3 0  9999
2 40040  98.0069 152.4933 0013404  28.8559 331.3398 14.93052410385216
1 40040U 14033AG  21203.60094855  .00001735  00000-0  17223-3 0  9998
2 40040  98.0069 152.6979 0013386  28.2223 331.9718 14.93054428385740
1 40040U 14033AG  21203.80200211  .00001806  00000-0  17904-3 0  9990
2 40040  98.0069 152.9025 0013375  27.5915 332.6011 14.93055433385272
1 40040U 14033AG  21204.40516343  .00001544  00000-0  15384-3 0  9992
2 40040  98.0069 153.5164 0013329  25.7736 334.4144 14.93055543385362
1 40040U 14033AG  21204.80726977  .00001875  00000-0  18565-3 0  9993
2 40040  98.0069 153.9256 0013301  24.4899 335.6949 14.93058614385429
1 40040U 14033AG  21204.80726977  .00001875  00000-0  18565-3 0  9993
2 40040  98.0069 153.9256 0013301  24.4899 335.6949 14.93058614385924
1 40040U 14033AG  21205.34341129  .00001872  00000-0  18531-3 0  9995
2 40040  98.0069 154.4713 0013258  22.8728 337.3078 14.93060341385508
